[{"OBJECT_NAME":"UNISAT-6","OBJECT_ID":"2014-033C","EPOCH":"2026-03-09T22:37:09.123744","MEAN_MOTION":14.87640019,"ECCENTRICITY":0.00460496,"INCLINATION":97.7728,"RA_OF_ASC_NODE":223.5167,"ARG_OF_PERICENTER":36.9255,"MEAN_ANOMALY":323.5117,"EPHEMERIS_TYPE":0,"CLASSIFICATION_TYPE":"U","NORAD_CAT_ID":40012,"ELEMENT_SET_NO":999,"REV_AT_EPOCH":63140,"BSTAR":0.00041207686,"MEAN_MOTION_DOT":3.766e-5,"MEAN_MOTION_DDOT":0},{"OBJECT_NAME":"GEESAT-6 01","OBJECT_ID":"2025-214B","EPOCH":"2026-03-09T22:49:09.909696","MEAN_MOTION":14.83119835,"ECCENTRICITY":0.00123553,"INCLINATION":49.9859,"RA_OF_ASC_NODE":48.2584,"ARG_OF_PERICENTER":212.3001,"MEAN_ANOMALY":147.7181,"EPHEMERIS_TYPE":0,"CLASSIFICATION_TYPE":"U","NORAD_CAT_ID":65713,"ELEMENT_SET_NO":999,"REV_AT_EPOCH":2477,"BSTAR":0.00034422845,"MEAN_MOTION_DOT":2.612e-5,"MEAN_MOTION_DDOT":0}]
